QZS-1R                  
1 49336U 21096A   24247.47714341 -.00000262  00000+0  00000+0 0  9992
2 49336  36.1035  89.3402 0742463 269.5064 289.4866  1.00296149 10476
